OSCAR 7 (AO-7)          
1 07530U 74089B   26182.33643674 -.00000038  00000+0  51364-4 0  9992
2 07530 101.9899 195.7305 0012654 103.9193 269.9561 12.53698345362294
PHASE 3B (AO-10)        
1 14129U 83058B   26180.99416899 -.00000150  00000+0  00000+0 0  9998
2 14129  25.9232 217.4494 6006519 119.1882 313.2024  2.05871195295751
UOSAT 2 (UO-11)         
1 14781U 84021B   26182.45071382  .00001660  00000+0  17428-3 0  9992
2 14781  97.8066 147.8667 0008734 129.4029 230.7964 14.90820365259259
LUSAT (LO-19)           
1 20442U 90005G   26182.34499695  .00000134  00000+0  64527-4 0  9999
2 20442  98.8845 204.5405 0011921 159.5755 200.5908 14.34127457904428
EYESAT A (AO-27)        
1 22825U 93061C   26182.61394035  .00000113  00000+0  59818-4 0  9997
2 22825  98.6876 250.0219 0009367  62.4356 297.7777 14.30946055709060
ITAMSAT (IO-26)         
1 22826U 93061D   26182.44924202  .00000125  00000+0  63903-4 0  9997
2 22826  98.6824 249.7763 0009693  47.4296 312.7703 14.31373320709350
RADIO ROSTO (RS15)      
1 23439U 94085A   26182.48361404 -.00000026  00000+0  47679-3 0  9990
2 23439  64.8180 280.0956 0156425   1.2311 358.8969 11.27583396297518
JAS-2 (FO-29)           
1 24278U 96046B   26182.50636289 -.00000026  00000+0  71340-5 0  9994
2 24278  98.5226  29.4160 0350813  59.3830 304.1415 13.53274940475100
TECHSAT 1B (GO-32)      
1 25397U 98043D   26182.46419188  .00000057  00000+0  44995-4 0  9996
2 25397  99.0073 175.5832 0001736 137.0286 223.1028 14.24431155453360
ISS (ZARYA)             
1 25544U 98067A   26182.50817465  .00006185  00000+0  11827-3 0  9996
2 25544  51.6311 229.1989 0004224 255.0896 104.9625 15.49503254573972
PCSAT (NO-44)           
1 26931U 01043C   26182.47759659  .00000097  00000+0  67175-4 0  9995
2 26931  67.0489 207.3102 0006018 265.5004  94.5410 14.31960694292491
SAUDISAT 1C (SO-50)     
1 27607U 02058C   26182.38338564  .00001035  00000+0  13912-3 0  9993
2 27607  64.5520  85.0626 0074919 259.8268  99.4382 14.83076563266566
CUTE-1 (CO-55)          
1 27844U 03031E   26182.50822858  .00000299  00000+0  14842-3 0  9990
2 27844  98.6736 190.8869 0010387 138.3809 221.8162 14.24344446193717
CUBESAT XI-IV (CO-57)   
1 27848U 03031J   26182.50387728  .00000247  00000+0  12755-3 0  9990
2 27848  98.6768 190.5840 0009878 155.7692 204.3953 14.23628338193413
MOZHAETS 4 (RS22)       
1 27939U 03042A   26182.61384719  .00000551  00000+0  93104-4 0  9998
2 27939  98.3465   7.3802 0010266 218.3407 231.4843 14.73490972217671
CUBESAT XI-V            
1 28895U 05043F   26181.38022833  .00001474  00000+0  23930-3 0  9996
2 28895  98.2997 337.2799 0014555 159.1785 201.0018 14.72666866103697
CUTE-1.7+APD II (CO-65) 
1 32785U 08021C   26182.63323903  .00006548  00000+0  41134-3 0  9992
2 32785  97.8279 164.3537 0008246 351.3576   8.7509 15.09589272987379
SEEDS II (CO-66)        
1 32791U 08021J   26182.49590807  .00021762  00000+0  67899-3 0  9993
2 32791  97.7518 181.0814 0001306 190.4389 169.6825 15.33239854989486
YUBILEINY (RS30)        
1 32953U 08025A   26182.58451263 -.00000020  00000+0 -21249-3 0  9994
2 32953  82.5042 346.4825 0018502 280.5899  79.3096 12.43180063821489
KKS-1 (KISEKI)          
1 33499U 09002H   26182.49180833  .00001409  00000+0  17955-3 0  9997
2 33499  98.1183 105.1607 0006502 239.2060 120.8514 14.83160039938315
SWISSCUBE               
1 35932U 09051B   26182.26253496  .00001129  00000+0  23229-3 0  9996
2 35932  98.4025  90.3956 0006991 157.8924 202.2580 14.62508639891219
BEESAT-1                
1 35933U 09051C   26182.27930976  .00000950  00000+0  20030-3 0  9991
2 35933  98.3952  90.0184 0005187 168.8281 191.3035 14.61743320891245
ITUPSAT1                
1 35935U 09051E   26182.28254693  .00000863  00000+0  18802-3 0  9996
2 35935  98.4035  89.1986 0007070 185.0409 175.0721 14.60461628890792
XIWANG-1 (HOPE-1)       
1 36122U 09072B   26182.60771527  .00000245  00000+0  75754-3 0  9997
2 36122 100.4032 136.2102 0007181 196.2420 163.8464 13.16440554794906
O/OREOS (USA 219)       
1 37224U 10062C   26182.32648406  .00002639  00000+0  25408-3 0  9990
2 37224  71.9707  48.3104 0013166  32.9496 327.2493 14.93804016118759
JUGNU                   
1 37839U 11058B   26182.49946265  .00000397  00000+0  67402-4 0  9990
2 37839  19.9592 221.4765 0018352 234.2140 271.9127 14.13780246761053
SRMSAT                  
1 37841U 11058D   26182.64796339  .00000383  00000+0  64224-4 0  9999
2 37841  19.9733 331.9443 0011805   3.5333  91.5062 14.11578567759869
STRAND-1                
1 39090U 13009E   26182.46768266  .00000327  00000+0  12421-3 0  9992
2 39090  98.3926   2.3508 0008552 180.1835 179.9350 14.37172069699114
ZACUBE-1 (TSHEPISOSAT)  
1 39417U 13066B   26182.47127782  .00004016  00000+0  31129-3 0  9996
2 39417  97.8043 144.8809 0042794 199.4949 160.4640 15.01267556682872
GOMX-1                  
1 39430U 13066Q   26182.48526281  .00001510  00000+0  23147-3 0  9996
2 39430  97.6470  22.0452 0129434  32.1219 328.7791 14.69506755672011
